id,name,address1,address2,latitude,longitude,extra_info,is_open,city
122,Shell HELIX,"пр. Республики, д. 52/1","между Налоговым комитетом  и магазином ""Sulpak""",51.1819,71.4235,,True,Нур-Султан
228,Bizzon Workshop,"пр. Республики, д. 84","уг. ул. Гёте, возле АЗС ""Аскар"", вдоль теплотрассы, первый поворот направо, р-н старого ж/д вокзала",51.1907,71.4216,,True,Нур-Султан
112,Вираж Сервис,"пр. Тлендиева, д. 3","р-н Астраханской трассы, возле МЧС Сарыаркинского района",51.1766,71.3884,,True,Нур-Султан
300,Кулагер,"ул. Акжол, д. 27/2","в здании ТД Арзан, возле ТД Астыкжан",51.1833,71.4519,,True,Нур-Султан
237,SATURN AUTO,"ул. Куйши Дина, д. 29","бывшее здание ЦОНа, напротив церкви, возле школы ""Мирас""",51.1511,71.484,,True,Нур-Султан
58,Klakson,"ул. Майлина, д. 17",за ТЦ Жайлы,51.145725,71.475602,,True,Нур-Султан
306,СТО Bastion,"ул. Омарова, д. 166","пересечение пр. Абая и ул. Сырдария, возле ресторана ""Ханшайым""",51.1718,71.4459,,True,Нур-Султан
295,SIMEX,"ул. Цветочная, д. 121А","уг. ул. Акан Сери, ближайшее СТО к СпецЦОНу",51.1772,71.368,,True,Нур-Султан
119,SCT Service,"мкр. Айнабулак-3, ул. Павлодарская, д. 100",100 метров от конечной остановки,43.3328,76.9227,,True,Алматы
131,SCT Service,"мкр. Акбулак, д. 23","по ул. Момышулы, ниже пр. Рыскулова, по дороге в АвтоЦОН",43.2575,76.8225,,True,Алматы
303,СТО ШЕБЕР,"мкр. Акбулак, ул. Хан шатыр, д. 287",уг. пр. Рыскулова (возле ТК Magnum по ул. Момышулы),43.2524,76.8236,,True,Алматы
54,SCT service,"мкр. Жетысу-1, д. 9","пр. Улугбека, м/у улиц Момышулы и Саина",43.224926,76.838997,,True,Алматы
248,G Energy,"пр. Райымбека, д. 542/2","напротив рынка ""Жибек Жолы""",43.2375,76.8087,,True,Алматы
246,Arsenal,"пр. Рыскулова, д. 149","ниже пр. Райымбека, между заправками ""КазМунайГаз"" и ""Royal Petrol""",43.25,76.8372,,True,Алматы
51,SCT Service,"пр. Рыскулова, д. 274","напротив ТРЦ DOMILLION, за заводом ""Маслодел""",43.255061,76.841088,,True,Алматы
299,Restart,"пр. Суюнбая, д. 211","не доезжая автосалона ""Nissan""",43.315,76.9569,,True,Алматы
290,Total,"ул. Бухтарминская, д. 2В","уг. ул. Майлина, напротив экопоста ГАИ",43.3376,77.0001,,True,Алматы
245,Столичное,"ул. Жансугурова, д. 291 А","ниже ул. Рыскулова, возле кафе ""Место встречи"" и KFC",43.3045,76.9303,,True,Алматы
100,Вираж-Сервис Казахстан,"ул. Желтоксан, д. 15","ниже пр. Райымбека, с левой стороны, ниже автосалона ""UAZ""",43.2716,76.9372,,True,Алматы
289,Шинторг,"ул. Ислама Каримова, д. 93","выше ул. Толе би, м/у улиц Розыбакиева и Тургута Озала",43.2492,76.8829,,True,Алматы
297,СТО KABAN Service,"ул. Карасай батыра, д. 162/1","уг. ул. Ауэзова, напротив школы искусства и дизайна им. А.Кастеева",43.2483,76.9035,,True,Алматы
307,VIANOR,"ул. Мустай Карим, д. 12Б","по ул. Саина, не доезжая ул. Жандосова, с правой стороны",43.2105,76.8591,,True,Алматы
252,UniMotors,"ул. Сатпаева, д. 139","уг. ул. Тлендиева, в районе ТРЦ ADK (возле АЗС ""Royal Petrol"")",43.2322,76.8731,,True,Алматы
48,SCT Service,"ул. Утеген Батыра, д. 124/1","уг. ул. Кабдолова, напротив ТРЦ Grand Park, вход со стороны ЗАГСа",43.2385,76.8602,,True,Алматы
240,Nash Service,"ул. Яссауи, д. 195 А","по ул. Шаляпина, не доезжая ул. Яссауи, с правой стороны (если ехать со стороны ул. Момышулы)",43.209,76.8361,,True,Алматы
133,Aktau motors,"1А мкр-н, д. 7",,43.6347,51.1881,,True,Актау
249,Yasira motors,"25 мкр-н, здание 52/2","перекресток возле рынка ""АСАР-С"", в сторону мойки ""Автодуш"", не доезжая до красного коттеджа",43.6547,51.1847,,True,Актау
294,Asu Avto,"6А мкр-н, д. 11/1","напротив 22 мкр-н, возле магазина ""Ер Косай""",43.6463,51.1702,,True,Актау
66,Автотехсервис,"пр. Санкибай батыра, д. 24","возле кафе ""Свежак"", напротив заправки ""КазМунайГаз""",50.2929,57.1393,,True,Актобе
242,СТО Джамал,"ул. Нокина, д. 16/1","расположено вдоль дороги, напротив ресторана ""Думаш""",50.3073,57.2129,,True,Актобе
67,Pit Stop,"ул. Тайманова, д. 1 В","возле гипермаркета ""Метро""",50.2875,57.1324,,True,Актобе
113,СТО Автосервис,"мкр. Привокзальный, ул. Баймуханова, д. 58/2","уг. ул. Амандосова, напротив АЗС ""Helios"", возле Института Нефти и Газа",47.1294,51.9384,,True,Атырау
291,Total Servis,"ул. Тайманова, д. 135","возле кольцевой автодороги, в сторону Астраханской трассы, возле заправки ""Sinooil""",47.14,51.8922,,True,Атырау
123,Vianor,"мкр. Юго-Восток, пр. Республики, д. 47",напротив ТБЦ Аян,49.7688,73.1594,,True,Караганда
102,Vianor,"ул. Кривогуза, д. 65","остановка ""Детский сад"", за зданием ТОО ""Эргономика""",49.7984,73.0647,,True,Караганда
70,"Автокомплекс ""Заман""","ул. Новоселова, д. 177/2","возле автомойки ""Барин""",49.8022,73.1059,,True,Караганда
230,Авто Premium,"ул. Садуакасова, д. 99А",уг. ул. Валиханова,53.2738,69.3965,,True,Кокшетау
305,СТО Oil Центр,"пр. Абая, д. 60/1",возле поликлиники №2,53.1969,63.6187,,True,Костанай
72,Garage,"ул. Карбышева, д. 45/2","р-н остановки ""Гор. газ""",53.1935,63.588,,True,Костанай
231,Expert,"мкр. Западный, ул. Журбы, д. 85А",возле Пожарной части,44.8513,65.4624,,True,Кызылорда
74,Pegas Service,"ул. М.Шокая, д. 248","за рестораном ""БайЕр"", не доезжая до рынка ""Сыганак""",44.816127,65.547991,,True,Кызылорда
76,Автоаптека,"пр. Кутузова, д. 173",м/у улиц Ломова и Амангельды,52.258475,76.971528,,True,Павлодар
75,Акцент,"ул. Малая Объездная, д. 6","уг. ул. Кирова, за дворцом спорта ""Баянтау"", напротив ресторана ""Урарту""",52.2852,76.9866,,True,Павлодар
128,Камкор-Авто,"ул. Торговая, д. 1",возле Авторынка,52.3086,76.9266,,True,Павлодар
235,СТО Patron,"ул. Жамбыла, д. 304",не доезжая до ул. Шухова,54.9009,69.1526,,True,Петропавловск
127,SEMEY MOTORS,"ул. Бозтаева, д. 4/3","около автомойки ""Водолей"", остановка ""Протезный завод""",50.3881,80.2273,,True,Семей
301,AVTO,"ул. Муратбаева, д. 51",не доезжая 150 метров до Автоцона,45.0138,78.4253,,True,Талдыкорган
232,СТО Тараз Битурбо,"мкр. Жансая, ул. Тауке хана, д. 13Б",рядом с ТД Давмир,42.8989,71.327,,True,Тараз
78,Ural Car City,"4 мкр-н, д. 28","остановка ""4 мкр-н"", под мостом",51.241105,51.433546,,True,Уральск
111,Guber service,"ул. Вокзальная, д. 8","остановка ""ж/д вокзал""",51.2275,51.3666,,True,Уральск
117,СТО,"пр. Назарбаева, д. 128","в сторону остановки ""Электротовары"", проезжая перекресток обл. ГАИ, на повороте к ""Бипэк Авто"", желтое здание",49.9853,82.5743,,True,Усть-Каменогорск
304,Avto City,"ул. Калинина, д. 72","250 м от перекрёстка пр. Абая и ул. Бажова, проезжая городской суд №2 и здание ""ВК РЭК"", первый поворот направо по ул. Бажова",49.9705,82.6171,,True,Усть-Каменогорск
302,Автосервис,"Тамерлановское шоссе, д. 111 А","бывший ""Mersedec центр"", между автосалоном ""Lexus"" и рестораном ""Алтын Шанырак""",42.3476,69.5362,,True,Шымкент
103,Вираж Авто Сервис,"Ташкентское шоссе, д. 22","возле старого Авторынка, на территории автосалона ""Вираж""",42.2866,69.5618,,True,Шымкент
81,СТО ДИВА,"ул. Байдибек би, д. 174","уг. Темирлановского шоссе, напротив рынка ""Авто-Нур"", возле АЗС ""Бейбарс""",42.331002,69.565796,,True,Шымкент
80,Автоцентр Тулпар,"ул. Кожанова, б/н","не доезжая до Обл. ГАИ, напротив АЗС ""TS""",42.331567,69.579072,В пятницу с 13:00 до 15:00 перерыв на пятничный намаз,True,Шымкент
244,СТО,"ул. Кожанова, д. 63","напротив магазина ""Сузар""",42.3336,69.5852,,True,Шымкент
298,СТО,"ул. Рыскулова, д. 1524","уг. ул. Казиева, с правой стороны, возле магазина ""КазБел-Техника""",42.3485,69.5981,,True,Шымкент
